NORAD_CAT_ID,OBJECT_NAME,OBJECT_TYPE,EPOCH,MEAN_MOTION,ECCENTRICITY,INCLINATION,RA_OF_ASC_NODE,ARG_OF_PERICENTER,MEAN_ANOMALY,BSTAR,MEAN_MOTION_DOT,MEAN_MOTION_DDOT,TLE_LINE0,TLE_LINE1,TLE_LINE2,SEMIMAJOR_AXIS,PERIOD,APOGEE,PERIGEE,DECAYED
52470.0,STARLINK-3859,PAYLOAD,2023-04-23 08:19:19,15.08846803,0.0001312,53.2147,98.7788,112.5869,247.5262,0.0002026,2.939e-05,0.0,0 STARLINK-3859,1 52470U 22049V   23113.34674848  .00002939  00000-0  20260-3 0  9995,2 52470  53.2147  98.7788 0001312 112.5869 247.5262 15.08846803 53535,6917.86,95.437,540.632,538.817,0.0
52470.0,STARLINK-3859,PAYLOAD,2023-04-23 16:16:14,15.08839738,0.000125,53.213,97.2912,110.7821,249.3305,0.00013405,1.846e-05,0.0,0 STARLINK-3859,1 52470U 22049V   23113.67795128  .00001846  00000-0  13405-3 0  9995,2 52470  53.2130  97.2912 0001250 110.7821 249.3305 15.08839738 53749,6917.881,95.438,540.611,538.881,0.0
52470.0,STARLINK-3859,PAYLOAD,2023-04-24 08:10:05,15.08870205,0.0001316,53.215,94.3189,103.1186,256.9953,0.00071282,0.00011084,0.0,0 STARLINK-3859,1 52470U 22049V   23114.34034265  .00011084  00000-0  71282-3 0  9990,2 52470  53.2150  94.3189 0001316 103.1186 256.9953 15.08870205 53688,6917.788,95.436,540.563,538.743,0.0
52470.0,STARLINK-3859,PAYLOAD,2023-04-25 04:50:06,15.08851244,0.0001361,53.2147,90.4526,100.6469,259.4677,0.0002284,3.35e-05,0.0,0 STARLINK-3859,1 52470U 22049V   23115.20146309  .00003350  00000-0  22840-3 0  9992,2 52470  53.2147  90.4526 0001361 100.6469 259.4677 15.08851244 53977,6917.846,95.437,540.653,538.77,0.0
52470.0,STARLINK-3859,PAYLOAD,2023-04-25 09:36:15,15.08852708,0.0001348,53.2157,89.5593,106.7736,253.3404,0.00021217,3.092e-05,0.0,0 STARLINK-3859,1 52470U 22049V   23115.40018095  .00003092  00000-0  21217-3 0  9994,2 52470  53.2157  89.5593 0001348 106.7736 253.3404 15.08852708 53843,6917.842,95.437,540.639,538.774,0.0
52470.0,STARLINK-3859,PAYLOAD,2023-04-26 01:30:08,15.08824048,0.0001439,53.216,86.5848,111.2074,248.9072,-0.00026587,-4.515e-05,0.0,0 STARLINK-3859,1 52470U 22049V   23116.06259519 -.00004515  00000-0 -26587-3 0  9993,2 52470  53.2160  86.5848 0001439 111.2074 248.9072 15.08824048 54101,6917.929,95.439,540.79,538.799,0.0
52470.0,STARLINK-3859,PAYLOAD,2023-04-26 07:51:41,15.08824078,0.0001346,53.2166,85.3971,93.1115,267.0031,-0.00016257,-2.873e-05,0.0,0 STARLINK-3859,1 52470U 22049V   23116.32756100 -.00002873  00000-0 -16257-3 0  9998,2 52470  53.2166  85.3971 0001346  93.1115 267.0031 15.08824078 53987,6917.929,95.439,540.725,538.863,0.0
52470.0,STARLINK-3859,PAYLOAD,2023-04-27 04:31:42,15.08829637,0.0001088,53.2169,81.5325,85.409,274.7026,-1.2218e-05,-4.82e-06,0.0,0 STARLINK-3859,1 52470U 22049V   23117.18868513 -.00000482  00000-0 -12218-4 0  9993,2 52470  53.2169  81.5325 0001088  85.4090 274.7026 15.08829637 54278,6917.912,95.438,540.53,539.024,0.0
52470.0,STARLINK-3859,PAYLOAD,2023-04-27 07:42:29,15.08827436,0.0001007,53.2183,80.9388,87.1601,272.9506,-3.1286e-05,-7.85e-06,0.0,0 STARLINK-3859,1 52470U 22049V   23117.32117057 -.00000785  00000-0 -31286-4 0  9991,2 52470  53.2183  80.9388 0001007  87.1601 272.9506 15.08827436 54137,6917.919,95.438,540.48,539.087,0.0
52470.0,STARLINK-3859,PAYLOAD,2023-04-28 04:22:29,15.08847023,0.0001064,53.2161,77.0717,78.8994,281.2118,0.00042898,6.547e-05,0.0,0 STARLINK-3859,1 52470U 22049V   23118.18228575  .00006547  00000-0  42898-3 0  9994,2 52470  53.2161  77.0717 0001064  78.8994 281.2118 15.08847023 54429,6917.859,95.437,540.46,538.988,0.0
52470.0,STARLINK-3859,PAYLOAD,2023-04-28 07:33:15,15.08847785,0.0001048,53.2161,76.4771,77.4157,282.6953,0.00041101,6.261e-05,0.0,0 STARLINK-3859,1 52470U 22049V   23118.31476514  .00006261  00000-0  41101-3 0  9996,2 52470  53.2161  76.4771 0001048  77.4157 282.6953 15.08847785 54281,6917.857,95.437,540.447,538.997,0.0
52470.0,STARLINK-3859,PAYLOAD,2023-04-28 13:54:48,15.0884243,0.0001098,53.2155,75.2868,78.6332,281.4784,0.00028608,4.268e-05,0.0,0 STARLINK-3859,1 52470U 22049V   23118.57972718  .00004268  00000-0  28608-3 0  9993,2 52470  53.2155  75.2868 0001098  78.6332 281.4784 15.08842430 54484,6917.873,95.437,540.498,538.978,0.0
52470.0,STARLINK-3859,PAYLOAD,2023-04-29 07:24:02,15.0885522,0.0001095,53.2154,72.0165,81.8534,278.2582,0.00043948,6.716e-05,0.0,0 STARLINK-3859,1 52470U 22049V   23119.30835927  .00006716  00000-0  43948-3 0  9999,2 52470  53.2154  72.0165 0001095  81.8534 278.2582 15.08855220 54431,6917.834,95.437,540.456,538.941,0.0
52470.0,STARLINK-3859,PAYLOAD,2023-04-30 04:04:02,15.0885237,0.0001312,53.2164,68.1518,78.0432,282.0707,3.908e-05,3.34e-06,0.0,0 STARLINK-3859,1 52470U 22049V   23120.16947518  .00000334  00000-0  39080-4 0  9998,2 52470  53.2164  68.1518 0001312  78.0432 282.0707 15.08852370 54724,6917.843,95.437,540.615,538.8,0.0
52470.0,STARLINK-3859,PAYLOAD,2023-04-30 05:39:25,15.08853452,0.0001079,53.2154,67.8521,81.5975,278.5139,6.8059e-05,7.96e-06,0.0,0 STARLINK-3859,1 52470U 22049V   23120.23571289  .00000796  00000-0  68059-4 0  9994,2 52470  53.2154  67.8521 0001079  81.5975 278.5139 15.08853452 54578,6917.839,95.437,540.451,538.958,0.0
52470.0,STARLINK-3859,PAYLOAD,2023-04-30 19:57:54,15.08838246,0.0001339,53.2158,65.1777,86.9002,273.2143,-7.7726e-05,-1.525e-05,0.0,0 STARLINK-3859,1 52470U 22049V   23120.83187927 -.00001525  00000-0 -77726-4 0  9996,2 52470  53.2158  65.1777 0001339  86.9002 273.2143 15.08838246 54824,6917.886,95.438,540.677,538.824,0.0
52470.0,STARLINK-3859,PAYLOAD,2023-05-01 05:30:13,15.08836912,0.0001238,53.2163,63.3928,87.6211,272.4923,-3.148e-05,-7.89e-06,0.0,0 STARLINK-3859,1 52470U 22049V   23121.22932264 -.00000789  00000-0 -31480-4 0  9990,2 52470  53.2163  63.3928 0001238  87.6211 272.4923 15.08836912 54720,6917.89,95.438,540.611,538.898,0.0
52470.0,STARLINK-3859,PAYLOAD,2023-05-01 22:59:27,15.08843726,0.0001088,53.2166,60.1208,92.2486,267.8631,0.00020404,2.961e-05,0.0,0 STARLINK-3859,1 52470U 22049V   23121.95796281  .00002961  00000-0  20404-3 0  9992,2 52470  53.2166  60.1208 0001088  92.2486 267.8631 15.08843726 54992,6917.869,95.437,540.487,538.981,0.0
52470.0,STARLINK-3859,PAYLOAD,2023-05-02 13:17:56,15.08854177,0.0001182,53.2165,57.4456,85.5286,274.5841,0.00054356,8.377e-05,0.0,0 STARLINK-3859,1 52470U 22049V   23122.55412046  .00008377  00000-0  54356-3 0  9993,2 52470  53.2165  57.4456 0001182  85.5286 274.5841 15.08854177 54926,6917.837,95.437,540.52,538.884,0.0
52470.0,STARLINK-3859,PAYLOAD,2023-05-03 02:01:00,15.08853394,0.0001277,53.2175,55.0674,94.644,265.4698,0.00035305,5.337e-05,0.0,0 STARLINK-3859,1 52470U 22049V   23123.08403776  .00005337  00000-0  35305-3 0  9998,2 52470  53.2175  55.0674 0001277  94.6440 265.4698 15.08853394 55167,6917.839,95.437,540.588,538.821,0.0
52470.0,STARLINK-3859,PAYLOAD,2023-05-04 01:51:48,15.08841746,0.0001338,53.2174,50.6029,111.53,248.5835,-8.108e-05,-1.578e-05,0.0,0 STARLINK-3859,1 52470U 22049V   23124.07763897 -.00001578  00000-0 -81080-4 0  9998,2 52470  53.2174  50.6029 0001338 111.5300 248.5835 15.08841746 55313,6917.875,95.437,540.666,538.814,0.0
52470.0,STARLINK-3859,PAYLOAD,2023-05-04 05:02:34,15.08841259,0.0001367,53.2177,50.0083,109.6918,250.4222,-3.0973e-05,-7.81e-06,0.0,0 STARLINK-3859,1 52470U 22049V   23124.21012188 -.00000781  00000-0 -30973-4 0  9994,2 52470  53.2177  50.0083 0001367 109.6918 250.4222 15.08841259 55170,6917.877,95.437,540.687,538.796,0.0
52470.0,STARLINK-3859,PAYLOAD,2023-05-05 04:53:22,15.08781908,0.0001768,53.2179,45.5485,104.2736,255.8453,0.00096833,0.00015132,0.0,0 STARLINK-3859,1 52470U 22049V   23125.20373419  .00015132  00000-0  96833-3 0  9991,2 52470  53.2179  45.5485 0001768 104.2736 255.8453 15.08781908 55484,6918.058,95.441,541.146,538.7,0.0
52470.0,STARLINK-3859,PAYLOAD,2023-05-06 01:33:22,15.0883764,0.0001068,53.2172,41.6865,101.7902,258.321,5.5168e-05,5.9e-06,0.0,0 STARLINK-3859,1 52470U 22049V   23126.06484470  .00000590  00000-0  55168-4 0  9995,2 52470  53.2172  41.6865 0001068 101.7902 258.3210 15.08837640 55615,6917.888,95.438,540.491,539.014,0.0
52470.0,STARLINK-3859,PAYLOAD,2023-05-06 04:44:08,15.08841895,0.0001144,53.2178,41.0911,102.4835,257.6285,9.9322e-05,1.293e-05,0.0,0 STARLINK-3859,1 52470U 22049V   23126.19732213  .00001293  00000-0  99322-4 0  9991,2 52470  53.2178  41.0911 0001144 102.4835 257.6285 15.08841895 55470,6917.875,95.437,540.531,538.948,0.0
52470.0,STARLINK-3859,PAYLOAD,2023-05-07 02:59:31,15.0885395,9.95e-05,53.2165,36.9289,99.9636,260.1469,0.00019737,2.856e-05,0.0,0 STARLINK-3859,1 52470U 22049V   23127.12467576  .00002856  00000-0  19737-3 0  9999,2 52470  53.2165  36.9289 0000995  99.9636 260.1469 15.08853950 55770,6917.838,95.437,540.391,539.014,0.0
52470.0,STARLINK-3859,PAYLOAD,2023-05-07 22:04:11,15.08828367,0.0001083,53.2168,33.3591,106.9193,253.1918,-6.8175e-05,-1.372e-05,0.0,0 STARLINK-3859,1 52470U 22049V   23127.91957434 -.00001372  00000-0 -68175-4 0  9998,2 52470  53.2168  33.3591 0001083 106.9193 253.1918 15.08828367 55737,6917.916,95.438,540.53,539.032,0.0
52470.0,STARLINK-3859,PAYLOAD,2023-05-08 02:50:20,15.08833074,0.0001096,53.217,32.467,96.5153,263.5964,2.4665e-05,1.05e-06,0.0,0 STARLINK-3859,1 52470U 22049V   23128.11829449  .00000105  00000-0  24665-4 0  9992,2 52470  53.2170  32.4670 0001096  96.5153 263.5964 15.08833074 55920,6917.902,95.438,540.525,539.008,0.0
52470.0,STARLINK-3859,PAYLOAD,2023-05-08 21:54:57,15.08851412,0.0001032,53.2168,28.8992,87.8534,272.2577,0.00042248,6.444e-05,0.0,0 STARLINK-3859,1 52470U 22049V   23128.91317050  .00006444  00000-0  42248-3 0  9998,2 52470  53.2168  28.8992 0001032  87.8534 272.2577 15.08851412 55887,6917.846,95.437,540.424,538.997,0.0
52470.0,STARLINK-3859,PAYLOAD,2023-05-09 02:41:07,15.08868039,0.0001158,53.2165,28.0075,85.4619,274.6505,0.0013234,0.00020853,0.0,0 STARLINK-3859,1 52470U 22049V   23129.11189037  .00020853  00000-0  13234-2 0  9995,2 52470  53.2165  28.0075 0001158  85.4619 274.6505 15.08868039 55919,6917.795,95.436,540.461,538.859,0.0
